{"type": "FeatureCollection", "features": [ {"type": "Feature", "properties": {"norad_id": 66717, "name": "FLOCK 4H-14", "group": "last-30-days", "lat": 6.44792159773428, "lon": 67.72031970364552, "alt_km": 513.6961700719639, "timestamp": "2025-12-22T22:44:19.650317+00:00", "meta": {"OBJECT_NAME": "FLOCK 4H-14", "OBJECT_ID": "2025-276BD", "EPOCH": "2025-12-22T11:38:18.380544", "MEAN_MOTION": 15.18335157, "ECCENTRICITY": 0.00015743, "INCLINATION": 97.4417, "RA_OF_ASC_NODE": 68.1117, "ARG_OF_PERICENTER": 134.1788, "MEAN_ANOMALY": 225.9576, "EPHEMERIS_TYPE": 0, "CLASSIFICATION_TYPE": "U", "NORAD_CAT_ID": 66717, "ELEMENT_SET_NO": 999, "REV_AT_EPOCH": 285, "BSTAR": 0.00034410159, "MEAN_MOTION_DOT": 6.999e-05, "MEAN_MOTION_DDOT": 0}, "tle": {"line1": "1 66717U 25276BD  25356.48493496  .00006999  00000+0  34410-3 0  9994", "line2": "2 66717  97.4417  68.1117 0001574 134.1788 225.9576 15.18335157  2854"}}, "geometry": {"type": "Point", "coordinates": [67.72031970364552, 6.44792159773428]}}, {"type": "Feature", "properties": {"norad_id": 66718, "name": "FLOCK 4H-15", "group": "last-30-days", "lat": -80.95548376030185, "lon": -166.67869975894024, "alt_km": 519.7862007919794, "timestamp": "2025-12-22T22:44:19.650328+00:00", "meta": {"OBJECT_NAME": "FLOCK 4H-15", "OBJECT_ID": "2025-276BE", "EPOCH": "2025-12-22T12:04:36.458400", "MEAN_MOTION": 15.17098205, "ECCENTRICITY": 0.00031554, "INCLINATION": 97.4424, "RA_OF_ASC_NODE": 68.091, "ARG_OF_PERICENTER": 271.4319, "MEAN_ANOMALY": 88.6553, "EPHEMERIS_TYPE": 0, "CLASSIFICATION_TYPE": "U", "NORAD_CAT_ID": 66718, "ELEMENT_SET_NO": 999, "REV_AT_EPOCH": 360, "BSTAR": 0.00052583024, "MEAN_MOTION_DOT": 0.00010361, "MEAN_MOTION_DDOT": 0}, "tle": {"line1": "1 66718U 25276BE  25356.50319975  .00010361  00000+0  52583-3 0  9996", "line2": "2 66718  97.4424  68.0910 0003155 271.4319  88.6553 15.17098205  3607"}}, "geometry": {"type": "Point", "coordinates": [-166.67869975894024, -80.95548376030185]}}, {"type": "Feature", "properties": {"norad_id": 66719, "name": "FLOCK 4H-16", "group": "last-30-days", "lat": -81.50610451590508, "lon": 129.64857833580015, "alt_km": 519.5310897047557, "timestamp": "2025-12-22T22:44:19.650368+00:00", "meta": {"OBJECT_NAME": "FLOCK 4H-16", "OBJECT_ID": "2025-276BF", "EPOCH": "2025-12-22T10:27:16.085376", "MEAN_MOTION": 15.17238053, "ECCENTRICITY": 0.00035043, "INCLINATION": 97.4446, "RA_OF_ASC_NODE": 68.0328, "ARG_OF_PERICENTER": 238.4995, "MEAN_ANOMALY": 121.5897, "EPHEMERIS_TYPE": 0, "CLASSIFICATION_TYPE": "U", "NORAD_CAT_ID": 66719, "ELEMENT_SET_NO": 999, "REV_AT_EPOCH": 359, "BSTAR": 0.0016888335, "MEAN_MOTION_DOT": 0.00033663, "MEAN_MOTION_DDOT": 0}, "tle": {"line1": "1 66719U 25276BF  25356.43560284  .00033663  00000+0  16888-2 0  9997", "line2": "2 66719  97.4446  68.0328 0003504 238.4995 121.5897 15.17238053  3599"}}, "geometry": {"type": "Point", "coordinates": [129.64857833580015, -81.50610451590508]}}, {"type": "Feature", "properties": {"norad_id": 66720, "name": "FLOCK 4H-17", "group": "last-30-days", "lat": -15.316029664127251, "lon": 70.62099999517646, "alt_km": 518.1734231493956, "timestamp": "2025-12-22T22:44:19.650379+00:00", "meta": {"OBJECT_NAME": "FLOCK 4H-17", "OBJECT_ID": "2025-276BG", "EPOCH": "2025-12-22T11:43:58.399104", "MEAN_MOTION": 15.18053418, "ECCENTRICITY": 0.0002663, "INCLINATION": 97.4443, "RA_OF_ASC_NODE": 68.1177, "ARG_OF_PERICENTER": 193.3388, "MEAN_ANOMALY": 166.7776, "EPHEMERIS_TYPE": 0, "CLASSIFICATION_TYPE": "U", "NORAD_CAT_ID": 66720, "ELEMENT_SET_NO": 999, "REV_AT_EPOCH": 360, "BSTAR": 0.00045325254, "MEAN_MOTION_DOT": 9.168e-05, "MEAN_MOTION_DDOT": 0}, "tle": {"line1": "1 66720U 25276BG  25356.48887036  .00009168  00000+0  45325-3 0  9993", "line2": "2 66720  97.4443  68.1177 0002663 193.3388 166.7776 15.18053418  3601"}}, "geometry": {"type": "Point", "coordinates": [70.62099999517646, -15.316029664127251]}}, {"type": "Feature", "properties": {"norad_id": 66721, "name": "FLOCK 4H-18", "group": "last-30-days", "lat": -82.24268522125858, "lon": 174.9585956453856, "alt_km": 520.0853735757228, "timestamp": "2025-12-22T22:44:19.650389+00:00", "meta": {"OBJECT_NAME": "FLOCK 4H-18", "OBJECT_ID": "2025-276BH", "EPOCH": "2025-12-22T12:03:50.466816", "MEAN_MOTION": 15.17134733, "ECCENTRICITY": 0.00026954, "INCLINATION": 97.4385, "RA_OF_ASC_NODE": 68.0772, "ARG_OF_PERICENTER": 287.9471, "MEAN_ANOMALY": 72.1469, "EPHEMERIS_TYPE": 0, "CLASSIFICATION_TYPE": "U", "NORAD_CAT_ID": 66721, "ELEMENT_SET_NO": 999, "REV_AT_EPOCH": 360, "BSTAR": 0.0005205227, "MEAN_MOTION_DOT": 0.00010266, "MEAN_MOTION_DDOT": 0}, "tle": {"line1": "1 66721U 25276BH  25356.50266744  .00010266  00000+0  52052-3 0  9990", "line2": "2 66721  97.4385  68.0772 0002695 287.9471  72.1469 15.17134733  3603"}}, "geometry": {"type": "Point", "coordinates": [174.9585956453856, -82.24268522125858]}}, {"type": "Feature", "properties": {"norad_id": 66722, "name": "FLOCK 4H-19", "group": "last-30-days", "lat": 0.036522800297242496, "lon": 68.54938646637149, "alt_km": 515.6807698077437, "timestamp": "2025-12-22T22:44:19.650399+00:00", "meta": {"OBJECT_NAME": "FLOCK 4H-19", "OBJECT_ID": "2025-276BJ", "EPOCH": "2025-12-22T11:39:57.758688", "MEAN_MOTION": 15.18223568, "ECCENTRICITY": 0.00022541, "INCLINATION": 97.4391, "RA_OF_ASC_NODE": 68.1005, "ARG_OF_PERICENTER": 157.8364, "MEAN_ANOMALY": 202.2968, "EPHEMERIS_TYPE": 0, "CLASSIFICATION_TYPE": "U", "NORAD_CAT_ID": 66722, "ELEMENT_SET_NO": 999, "REV_AT_EPOCH": 289, "BSTAR": 0.00056106452, "MEAN_MOTION_DOT": 0.00011424, "MEAN_MOTION_DDOT": 0}, "tle": {"line1": "1 66722U 25276BJ  25356.48608517  .00011424  00000+0  56106-3 0  9997", "line2": "2 66722  97.4391  68.1005 0002254 157.8364 202.2968 15.18223568  2894"}}, "geometry": {"type": "Point", "coordinates": [68.54938646637149, 0.036522800297242496]}}, {"type": "Feature", "properties": {"norad_id": 66723, "name": "FLOCK 4H-20", "group": "last-30-days", "lat": 3.4286176780551862, "lon": 68.12077025302202, "alt_km": 515.5188391513511, "timestamp": "2025-12-22T22:44:19.650409+00:00", "meta": {"OBJECT_NAME": "FLOCK 4H-20", "OBJECT_ID": "2025-276BK", "EPOCH": "2025-12-22T11:39:05.435712", "MEAN_MOTION": 15.18292116, "ECCENTRICITY": 0.00028489, "INCLINATION": 97.4427, "RA_OF_ASC_NODE": 68.115, "ARG_OF_PERICENTER": 173.3097, "MEAN_ANOMALY": 186.8176, "EPHEMERIS_TYPE": 0, "CLASSIFICATION_TYPE": "U", "NORAD_CAT_ID": 66723, "ELEMENT_SET_NO": 999, "REV_AT_EPOCH": 285, "BSTAR": 0.000579718, "MEAN_MOTION_DOT": 0.0001183, "MEAN_MOTION_DDOT": 0}, "tle": {"line1": "1 66723U 25276BK  25356.48547958  .00011830  00000+0  57972-3 0  9992", "line2": "2 66723  97.4427  68.1150 0002848 173.3097 186.8176 15.18292116  2850"}}, "geometry": {"type": "Point", "coordinates": [68.12077025302202, 3.4286176780551862]}}, {"type": "Feature", "properties": {"norad_id": 66724, "name": "FLOCK 4H-21", "group": "last-30-days", "lat": 6.374753300232002, "lon": 67.72032637762563, "alt_km": 514.6917117700796, "timestamp": "2025-12-22T22:44:19.650419+00:00", "meta": {"OBJECT_NAME": "FLOCK 4H-21", "OBJECT_ID": "2025-276BL", "EPOCH": "2025-12-22T11:38:19.970304", "MEAN_MOTION": 15.18350502, "ECCENTRICITY": 0.00025847, "INCLINATION": 97.4393, "RA_OF_ASC_NODE": 68.1019, "ARG_OF_PERICENTER": 168.874, "MEAN_ANOMALY": 191.2552, "EPHEMERIS_TYPE": 0, "CLASSIFICATION_TYPE": "U", "NORAD_CAT_ID": 66724, "ELEMENT_SET_NO": 999, "REV_AT_EPOCH": 285, "BSTAR": 0.00057441788, "MEAN_MOTION_DOT": 0.00011741, "MEAN_MOTION_DDOT": 0}, "tle": {"line1": "1 66724U 25276BL  25356.48495336  .00011741  00000+0  57442-3 0  9998", "line2": "2 66724  97.4393  68.1019 0002584 168.8740 191.2552 15.18350502  2850"}}, "geometry": {"type": "Point", "coordinates": [67.72032637762563, 6.374753300232002]}}, {"type": "Feature", "properties": {"norad_id": 66725, "name": "FLOCK 4H-22", "group": "last-30-days", "lat": -65.63486535575782, "lon": 85.28661283345053, "alt_km": 519.5862924498688, "timestamp": "2025-12-22T22:44:19.650432+00:00", "meta": {"OBJECT_NAME": "FLOCK 4H-22", "OBJECT_ID": "2025-276BM", "EPOCH": "2025-12-22T11:57:15.792480", "MEAN_MOTION": 15.17482654, "ECCENTRICITY": 0.00015992, "INCLINATION": 97.4379, "RA_OF_ASC_NODE": 68.0794, "ARG_OF_PERICENTER": 294.6705, "MEAN_ANOMALY": 65.4362, "EPHEMERIS_TYPE": 0, "CLASSIFICATION_TYPE": "U", "NORAD_CAT_ID": 66725, "ELEMENT_SET_NO": 999, "REV_AT_EPOCH": 360, "BSTAR": 0.00035180603, "MEAN_MOTION_DOT": 6.983e-05, "MEAN_MOTION_DDOT": 0}, "tle": {"line1": "1 66725U 25276BM  25356.49809945  .00006983  00000+0  35181-3 0  9993", "line2": "2 66725  97.4379  68.0794 0001599 294.6705  65.4362 15.17482654  3606"}}, "geometry": {"type": "Point", "coordinates": [85.28661283345053, -65.63486535575782]}}, {"type": "Feature", "properties": {"norad_id": 66726, "name": "FLOCK 4H-23", "group": "last-30-days", "lat": -81.68126265208969, "lon": 131.94645826479245, "alt_km": 519.342006827821, "timestamp": "2025-12-22T22:44:19.650446+00:00", "meta": {"OBJECT_NAME": "FLOCK 4H-23", "OBJECT_ID": "2025-276BN", "EPOCH": "2025-12-22T10:27:21.127680", "MEAN_MOTION": 15.17219334, "ECCENTRICITY": 0.0003575, "INCLINATION": 97.4442, "RA_OF_ASC_NODE": 68.0339, "ARG_OF_PERICENTER": 249.7808, "MEAN_ANOMALY": 110.3041, "EPHEMERIS_TYPE": 0, "CLASSIFICATION_TYPE": "U", "NORAD_CAT_ID": 66726, "ELEMENT_SET_NO": 999, "REV_AT_EPOCH": 359, "BSTAR": 0.00085290082, "MEAN_MOTION_DOT": 0.0001692, "MEAN_MOTION_DDOT": 0}, "tle": {"line1": "1 66726U 25276BN  25356.43566120  .00016920  00000+0  85290-3 0  9991", "line2": "2 66726  97.4442  68.0339 0003575 249.7808 110.3041 15.17219334  3599"}}, "geometry": {"type": "Point", "coordinates": [131.94645826479245, -81.68126265208969]}}]}